[{"OBJECT_NAME":"ONEWEB-0189","OBJECT_ID":"2021-031H","EPOCH":"2026-03-09T16:15:08.770176","MEAN_MOTION":13.1450256,"ECCENTRICITY":0.00020082,"INCLINATION":87.8987,"RA_OF_ASC_NODE":309.5521,"ARG_OF_PERICENTER":82.6865,"MEAN_ANOMALY":277.4493,"EPHEMERIS_TYPE":0,"CLASSIFICATION_TYPE":"U","NORAD_CAT_ID":48217,"ELEMENT_SET_NO":999,"REV_AT_EPOCH":23515,"BSTAR":2.4854517e-5,"MEAN_MOTION_DOT":2.2e-7,"MEAN_MOTION_DDOT":0},{"OBJECT_NAME":"TUBSAT B","OBJECT_ID":"1994-003C","EPOCH":"2026-03-09T18:44:33.482976","MEAN_MOTION":13.17152588,"ECCENTRICITY":0.00174374,"INCLINATION":82.5657,"RA_OF_ASC_NODE":156.0592,"ARG_OF_PERICENTER":90.3714,"MEAN_ANOMALY":28.1979,"EPHEMERIS_TYPE":0,"CLASSIFICATION_TYPE":"U","NORAD_CAT_ID":22971,"ELEMENT_SET_NO":999,"REV_AT_EPOCH":54398,"BSTAR":0.00029992922,"MEAN_MOTION_DOT":1.28e-6,"MEAN_MOTION_DDOT":0}]
